[4692192016hq3]
absolute_magnitude             = 24.199999999999999
albedo                         = 0.14999999999999999
coord_func                     = comet_orbit
minor_planet_number            = 469219
name                           = Kamo`oalewa
iau_designation                = 2016 HO3
orbit_ArgOfPericenter          = 307.22764000000001
orbit_AscendingNode            = 66.513210000000001
orbit_Eccentricity             = 0.1041435
orbit_Epoch                    = 2457600.5
orbit_Inclination              = 7.7714400000000001
orbit_MeanAnomaly              = 297.53217999999998
orbit_MeanMotion               = 0.98379205000000003
orbit_SemiMajorAxis            = 1.0012300000000001
radius                         = 1
discovery                      = 2016-04-27
discoverer                     = Pan-STARRS 1
type                           = asteroid

[4vesta]
absolute_magnitude             = 3.0
albedo                         = 0.4228
color_index_bv                 = 0.782
coord_func                     = comet_orbit
minor_planet_number            = 4
model                          = 4vesta_21_MLfix.obj
name                           = Vesta
oblateness                     = 0.0
orbit_ArgOfPericenter          = 151.59911
orbit_AscendingNode            = 103.75733
orbit_Eccentricity             = 0.0887575
orbit_Epoch                    = 2460000.5
orbit_Inclination              = 7.13926
orbit_MeanAnomaly              = 115.13302
orbit_MeanMotion               = 0.27133009
orbit_SemiMajorAxis            = 2.3630382
orbit_visualization_period     = 1325.314867254217
radius                         = 262.7
rot_pole_de                    = 42.235
rot_pole_ra                    = 309.031
rot_pole_w0                    = 285.39
rot_pole_w1                    = 1617.3329428
rot_rotation_offset            = 210
slope_parameter                = 0.32
spec_b                         = V
spec_t                         = V
tex_map                        = vesta.png
discovery                      = 1807-03-29
discoverer                     = H.W. Olbers
type                           = asteroid

[50000quaoar]
absolute_magnitude             = 2.4
albedo                         = 0.16
coord_func                     = comet_orbit
minor_planet_number            = 50000
name                           = Quaoar
iau_designation                = 2002 LM60
orbit_ArgOfPericenter          = 157.69917
orbit_AscendingNode            = 189.10111
orbit_Eccentricity             = 0.0402881
orbit_Epoch                    = 2460000.5
orbit_Inclination              = 7.99129
orbit_MeanAnomaly              = 294.4204
orbit_MeanMotion               = 0.00344866
orbit_SemiMajorAxis            = 43.3879596
orbit_visualization_period     = 104638.6456476030
radius                         = 1037
discovery                      = 2002-06-04
discoverer                     = C.A. Trujillo, M.E. Brown
type                           = cubewano

[5261eureka]
absolute_magnitude             = 16.1
albedo                         = 0.182
coord_func                     = comet_orbit
minor_planet_number            = 5261
name                           = Eureka
iau_designation                = 1990 MB
orbit_ArgOfPericenter          = 95.53085
orbit_AscendingNode            = 245.01987
orbit_Eccentricity             = 0.0648448
orbit_Epoch                    = 2460000.5
orbit_Inclination              = 20.282
orbit_MeanAnomaly              = 67.92488
orbit_MeanMotion               = 0.5240994
orbit_SemiMajorAxis            = 1.5235625
radius                         = 0.939
spec_b                         = Sr
discovery                      = 1990-06-20
discoverer                     = D.H. Levy, H.E. Holt
type                           = asteroid

[556372002ux25]
absolute_magnitude             = 3.8
albedo                         = 0.15
coord_func                     = comet_orbit
minor_planet_number            = 55637
name                           = 2002 UX25
orbit_ArgOfPericenter          = 274.96751
orbit_AscendingNode            = 204.5433
orbit_Eccentricity             = 0.1429331
orbit_Epoch                    = 2460000.5
orbit_Inclination              = 19.38226
orbit_MeanAnomaly              = 306.66964
orbit_MeanMotion               = 0.00350266
orbit_SemiMajorAxis            = 42.9408913
radius                         = 597
discovery                      = 2002-10-30
discoverer                     = Spacewatch at Kitt Peak
type                           = cubewano

[90377sedna]
absolute_magnitude             = 1.5
albedo                         = 0.32
coord_func                     = comet_orbit
minor_planet_number            = 90377
name                           = Sedna
iau_designation                = 2003 VB12
orbit_ArgOfPericenter          = 310.8704
orbit_AscendingNode            = 144.25836
orbit_Eccentricity             = 0.8565261
orbit_Epoch                    = 2460000.5
orbit_Inclination              = 11.93034
orbit_MeanAnomaly              = 358.46965
orbit_MeanMotion               = 8.024e-05
orbit_SemiMajorAxis            = 532.372351
orbit_visualization_period     = 4059763.931035112
radius                         = 1643
slope_parameter                = 0.15
tex_map                        = sedna.png
discovery                      = 2003-11-14
discoverer                     = M.E. Brown, C.A. Trujillo, D. Rabinowitz
type                           = sednoid

[90482orcus]
absolute_magnitude             = 2.2
albedo                         = 0.25
coord_func                     = comet_orbit
minor_planet_number            = 90482
name                           = Orcus
iau_designation                = 2004 DW
orbit_ArgOfPericenter          = 73.46066
orbit_AscendingNode            = 268.53588
orbit_Eccentricity             = 0.2286225
orbit_Epoch                    = 2460000.5
orbit_Inclination              = 20.56758
orbit_MeanAnomaly              = 184.36712
orbit_MeanMotion               = 0.00402866
orbit_SemiMajorAxis            = 39.1166859
orbit_visualization_period     = 90497.54584826222
radius                         = 1190
slope_parameter                = 0.15
discovery                      = 2004-02-17
discoverer                     = M.E. Brown, C.A. Trujillo, D. Rabinowitz
type                           = plutino

[951gaspra]
absolute_magnitude             = 11.46
albedo                         = 0.246
color                          = 1., 0.904, 0.791
color_index_bv                 = 0.870
coord_func                     = comet_orbit
minor_planet_number            = 951
model                          = 951gaspra_21_MLfix.obj
name                           = Gaspra
iau_designation                = 1916 S45
orbit_ArgOfPericenter          = 129.82892
orbit_AscendingNode            = 253.00203
orbit_Eccentricity             = 0.1733948
orbit_Epoch                    = 2460000.5
orbit_Inclination              = 4.10535
orbit_MeanAnomaly              = 113.15161
orbit_MeanMotion               = 0.3000263
orbit_SemiMajorAxis            = 2.2098519
radius                         = 18
rot_pole_de                    = 26.70
rot_pole_ra                    = 9.47
rot_pole_w0                    = 83.67
rot_pole_w1                    = 1226.9114850
slope_parameter                = 0.15
spec_b                         = S
spec_t                         = S
tex_map                        = gaspra.png
discovery                      = 1916-07-30
discoverer                     = G.N. Neujmin
type                           = asteroid

